$$SOE
2459580.500000000, A.D. 2022-Jan-01 00:00:00.0000, 3.178758220467144E+08, 5.594842708008872E+08, -2.261892591495714E+07,
2459587.500000000, A.D. 2022-Jan-08 00:00:00.0000, 3.132891847117166E+08, 5.619013079558430E+08, -2.233213781819776E+07,
2459594.500000000, A.D. 2022-Jan-15 00:00:00.0000, 3.086454782649229E+08, 5.642160467030947E+08, -2.204128351869142E+07,
2459601.500000000, A.D. 2022-Jan-22 00:00:00.0000, 3.039454925008671E+08, 5.664279548594105E+08, -2.174641207444480E+07,
2459608.500000000, A.D. 2022-Jan-29 00:00:00.0000, 2.991900102943902E+08, 5.685364840881900E+08, -2.144757188160837E+07,
2459615.500000000, A.D. 2022-Feb-05 00:00:00.0000, 2.943798060797322E+08, 5.705410687484769E+08, -2.114481056917894E+07,
2459622.500000000, A.D. 2022-Feb-12 00:00:00.0000, 2.895156465022129E+08, 5.724411236581177E+08, -2.083817517863128E+07,
2459629.500000000, A.D. 2022-Feb-19 00:00:00.0000, 2.845982919197710E+08, 5.742360431387531E+08, -2.052771231363493E+07,
2459636.500000000, A.D. 2022-Feb-26 00:00:00.0000, 2.796284974445150E+08, 5.759252006180018E+08, -2.021346819891882E+07,
2459643.500000000, A.D. 2022-Mar-05 00:00:00.0000, 2.746070136850123E+08, 5.775079481705842E+08, -1.989548871363059E+07,
2459650.500000000, A.D. 2022-Mar-12 00:00:00.0000, 2.695345874127287E+08, 5.789836159314570E+08, -1.957381942528865E+07,
2459657.500000000, A.D. 2022-Mar-19 00:00:00.0000, 2.644119622253722E+08, 5.803515114078164E+08, -1.924850562895638E+07,
2459664.500000000, A.D. 2022-Mar-26 00:00:00.0000, 2.592398792313044E+08, 5.816109186828325E+08, -1.891959239457592E+07,
2459671.500000000, A.D. 2022-Apr-02 00:00:00.0000, 2.540190778246458E+08, 5.827610974540703E+08, -1.858712463361892E+07,
2459678.500000000, A.D. 2022-Apr-09 00:00:00.0000, 2.487502968250524E+08, 5.838012819102587E+08, -1.825114720995745E+07,
2459685.500000000, A.D. 2022-Apr-16 00:00:00.0000, 2.434342763414816E+08, 5.847306800993177E+08, -1.791170507459632E+07,
2459692.500000000, A.D. 2022-Apr-23 00:00:00.0000, 2.380717590935136E+08, 5.855484748702697E+08, -1.756884321957776E+07,
2459699.500000000, A.D. 2022-Apr-30 00:00:00.0000, 2.326634893220363E+08, 5.862538241414502E+08, -1.722260646317306E+07,
2459706.500000000, A.D. 2022-May-07 00:00:00.0000, 2.272102123538667E+08, 5.868458585200052E+08, -1.687303950871116E+07,
2459713.500000000, A.D. 2022-May-14 00:00:00.0000, 2.217126762125894E+08, 5.873236793096964E+08, -1.652018715646774E+07,
2459720.500000000, A.D. 2022-May-21 00:00:00.0000, 2.161716332475346E+08, 5.876863576635163E+08, -1.616409442052040E+07,
2459727.500000000, A.D. 2022-May-28 00:00:00.0000, 2.105878413048233E+08, 5.879329339199172E+08, -1.580480658514354E+07,
2459734.500000000, A.D. 2022-Jun-04 00:00:00.0000, 2.049620647205261E+08, 5.880624168075576E+08, -1.544236925186911E+07,
2459741.500000000, A.D. 2022-Jun-11 00:00:00.0000, 1.992950752838418E+08, 5.880737825184624E+08, -1.507682839046192E+07,
2459748.500000000, A.D. 2022-Jun-18 00:00:00.0000, 1.935876532124888E+08, 5.879659736605024E+08, -1.470823039642575E+07,
2459755.500000000, A.D. 2022-Jun-25 00:00:00.0000, 1.878405881735102E+08, 5.877378980535293E+08, -1.433662216060224E+07,
2459762.500000000, A.D. 2022-Jul-02 00:00:00.0000, 1.820546804875909E+08, 5.873884273008209E+08, -1.396205116867557E+07,
2459769.500000000, A.D. 2022-Jul-09 00:00:00.0000, 1.762307429116142E+08, 5.869163953101310E+08, -1.358456565207201E+07,
2459776.500000000, A.D. 2022-Jul-16 00:00:00.0000, 1.703696029493953E+08, 5.863205978442202E+08, -1.320421469689730E+07,
2459783.500000000, A.D. 2022-Jul-23 00:00:00.0000, 1.644721034978211E+08, 5.855997931745307E+08, -1.282104810308239E+07,
2459790.500000000, A.D. 2022-Jul-30 00:00:00.0000, 1.585391019176546E+08, 5.847527004791274E+08, -1.243511627557120E+07,
2459797.500000000, A.D. 2022-Aug-06 00:00:00.0000, 1.525714711332990E+08, 5.837779966290129E+08, -1.204647042478359E+07,
2459804.500000000, A.D. 2022-Aug-13 00:00:00.0000, 1.465701019450421E+08, 5.826743141128160E+08, -1.165516277596629E+07,
2459811.500000000, A.D. 2022-Aug-20 00:00:00.0000, 1.405359049912011E+08, 5.814402395910158E+08, -1.126124668478540E+07,
2459818.500000000, A.D. 2022-Aug-27 00:00:00.0000, 1.344698124353355E+08, 5.800743123478749E+08, -1.086477672497639E+07,
2459825.500000000, A.D. 2022-Sep-03 00:00:00.0000, 1.283727796344388E+08, 5.785750225255282E+08, -1.046580878014264E+07,
2459832.500000000, A.D. 2022-Sep-10 00:00:00.0000, 1.222457868873493E+08, 5.769408091588970E+08, -1.006440014646208E+07,
2459839.500000000, A.D. 2022-Sep-17 00:00:00.0000, 1.160898413030401E+08, 5.751700580038677E+08, -9.660609649739683E+06,
2459846.500000000, A.D. 2022-Sep-24 00:00:00.0000, 1.099059788604522E+08, 5.732610991013054E+08, -9.254497787234187E+06,
2459853.500000000, A.D. 2022-Oct-01 00:00:00.0000, 1.036952669120177E+08, 5.712122040474153E+08, -8.846126918961227E+06,
2459860.500000000, A.D. 2022-Oct-08 00:00:00.0000, 9.745880755145456E+07, 5.690215834849627E+08, -8.435561504189342E+06,
2459867.500000000, A.D. 2022-Oct-15 00:00:00.0000, 9.119774092891333E+07, 5.666873860064197E+08, -8.022868200865120E+06,
2459874.500000000, A.D. 2022-Oct-22 00:00:00.0000, 8.491324634820412E+07, 5.642076967753196E+08, -7.608115766733050E+06,
2459881.500000000, A.D. 2022-Oct-29 00:00:00.0000, 7.860654366072905E+07, 5.615805332619910E+08, -7.191375204455763E+06,
2459888.500000000, A.D. 2022-Nov-05 00:00:00.0000, 7.227889707457700E+07, 5.588038408256484E+08, -6.772720120799273E+06,
2459895.500000000, A.D. 2022-Nov-12 00:00:00.0000, 6.593161943615483E+07, 5.558754893995318E+08, -6.352227017782837E+06,
2459902.500000000, A.D. 2022-Nov-19 00:00:00.0000, 5.956607628913228E+07, 5.527932703127881E+08, -5.929975529469609E+06,
2459909.500000000, A.D. 2022-Nov-26 00:00:00.0000, 5.318368999948170E+07, 5.495548928388891E+08, -5.506048662707925E+06,
2459916.500000000, A.D. 2022-Dec-03 00:00:00.0000, 4.678594414227130E+07, 5.461579804453934E+08, -5.080533059929967E+06,
2459923.500000000, A.D. 2022-Dec-10 00:00:00.0000, 4.037438822880714E+07, 5.426000667490062E+08, -4.653519288764805E+06,
2459930.500000000, A.D. 2022-Dec-17 00:00:00.0000, 3.395064283568639E+07, 5.388785911349620E+08, -4.225102165078700E+06,
2459937.500000000, A.D. 2022-Dec-24 00:00:00.0000, 2.751640528613423E+07, 5.349908939576435E+08, -3.795381127396971E+06,
2459944.500000000, A.D. 2022-Dec-31 00:00:00.0000, 2.107345628683159E+07, 5.309342114115691E+08, -3.364460689548969E+06,
2459951.500000000, A.D. 2023-Jan-07 00:00:00.0000, 1.462366769392536E+07, 5.267056710160865E+08, -2.932450907353401E+06,
2459958.500000000, A.D. 2023-Jan-14 00:00:00.0000, 8.169009499053649E+06, 5.223022881903052E+08, -2.499467641989291E+06,
2459965.500000000, A.D. 2023-Jan-21 00:00:00.0000, 1.711555455417341E+06, 5.177209607223817E+08, -2.065632824163258E+06,
2459972.500000000, A.D. 2023-Jan-28 00:00:00.0000, -4.746508916758040E+06, 5.129584609141787E+08, -1.631075075879633E+06,
2459979.500000000, A.D. 2023-Feb-04 00:00:00.0000, -1.120287607206026E+07, 5.080114284065790E+08, -1.195930428475052E+06,
2459986.500000000, A.D. 2023-Feb-11 00:00:00.0000, -1.765510563052709E+07, 5.028763634667563E+08, -7.603429939647913E+05,
2459993.500000000, A.D. 2023-Feb-18 00:00:00.0000, -2.410061297479885E+07, 4.975496198870054E+08, -3.244656577164531E+05,
2460000.500000000, A.D. 2023-Feb-25 00:00:00.0000, -3.053665687152325E+07, 4.920273973052773E+08, 1.115391627953053E+05,
2460007.500000000, A.D. 2023-Mar-04 00:00:00.0000, -3.696032587892037E+07, 4.863057329374473E+08, 5.474986768413186E+05,
2460014.500000000, A.D. 2023-Mar-11 00:00:00.0000, -4.336852335690892E+07, 4.803804926924080E+08, 9.832287846302986E+05,
2460021.500000000, A.D. 2023-Mar-18 00:00:00.0000, -4.975795085557610E+07, 4.742473615906149E+08, 1.418533027395546E+06,
2460028.500000000, A.D. 2023-Mar-25 00:00:00.0000, -5.612508947586063E+07, 4.679018334086543E+08, 1.853201388159364E+06,
2460035.500000000, A.D. 2023-Apr-01 00:00:00.0000, -6.246617854574773E+07, 4.613391999132761E+08, 2.287008921783209E+06,
2460042.500000000, A.D. 2023-Apr-08 00:00:00.0000, -6.877719196131483E+07, 4.545545408819746E+08, 2.719714353983521E+06,
2460049.500000000, A.D. 2023-Apr-15 00:00:00.0000, -7.505381422317268E+07, 4.475427137788829E+08, 3.151058753751695E+06,
2460056.500000000, A.D. 2023-Apr-22 00:00:00.0000, -8.129141400736448E+07, 4.402983400120640E+08, 3.580763841517985E+06,
2460063.500000000, A.D. 2023-Apr-29 00:00:00.0000, -8.748501213206220E+07, 4.328157900155370E+08, 4.008529840363562E+06,
2460070.500000000, A.D. 2023-May-06 00:00:00.0000, -9.362924520918939E+07, 4.250891689438803E+08, 4.434033146630973E+06,
2460077.500000000, A.D. 2023-May-13 00:00:00.0000, -9.971832540774976E+07, 4.171123021066116E+08, 4.856923800799578E+06,
2460084.500000000, A.D. 2023-May-20 00:00:00.0000, -1.057459954548231E+08, 4.088787196927353E+08, 5.276822655457556E+06,
2460091.500000000, A.D. 2023-May-27 00:00:00.0000, -1.117054779346349E+08, 4.003816408278838E+08, 5.693318171623319E+06,
2460098.500000000, A.D. 2023-Jun-03 00:00:00.0000, -1.175894179558786E+08, 3.916139571034493E+08, 6.105962783321500E+06,
2460105.500000000, A.D. 2023-Jun-10 00:00:00.0000, -1.233898181413624E+08, 3.825682157335662E+08, 6.514268760269910E+06,
2460112.500000000, A.D. 2023-Jun-17 00:00:00.0000, -1.290979646503103E+08, 3.732366025250304E+08, 6.917703476979852E+06,
2460119.500000000, A.D. 2023-Jun-24 00:00:00.0000, -1.347043425001119E+08, 3.636109250621750E+08, 7.315683970778778E+06,
2460126.500000000, A.D. 2023-Jul-01 00:00:00.0000, -1.401985382682293E+08, 3.536825974172593E+08, 7.707570723697424E+06,
2460133.500000000, A.D. 2023-Jul-08 00:00:00.0000, -1.455691298798692E+08, 3.434426278750011E+08, 8.092660759097025E+06,
2460140.500000000, A.D. 2023-Jul-15 00:00:00.0000, -1.508035624244325E+08, 3.328816077503341E+08, 8.470179784732908E+06,
2460147.500000000, A.D. 2023-Jul-22 00:00:00.0000, -1.558880037146817E+08, 3.219897014903203E+08, 8.839272792172551E+06,
$$EOE